LANDSAT 9               
1 49260U 21088A   24035.19718070  .00000522  00000+0  12579-3 0  9992
2 49260  98.2037 106.9946 0000967 103.1092 257.0214 14.57108755125175
